CCSDS_OMM_VERS = 2.0
CREATION_DATE  = 
ORIGINATOR     = 

OBJECT_NAME    = SL-16 R/B
OBJECT_ID      = 1994-074B
CENTER_NAME    = EARTH
REF_FRAME      = TEME
TIME_SYSTEM    = UTC
MEAN_ELEMENT_THEORY = SGP/SGP4

EPOCH          = 2025-12-14T00:31:17.052960
MEAN_MOTION    = 14.79291408
ECCENTRICITY   = .00076199
INCLINATION    = 97.7202
RA_OF_ASC_NODE = 17.2753
ARG_OF_PERICENTER = 132.2297
MEAN_ANOMALY   = 257.2182

EPHEMERIS_TYPE = 0
CLASSIFICATION_TYPE = U
NORAD_CAT_ID   = 23343
ELEMENT_SET_NO = 999
REV_AT_EPOCH   = 67458
BSTAR          = .99549616E-4
MEAN_MOTION_DOT = .691E-5
MEAN_MOTION_DDOT = 0

CCSDS_OMM_VERS = 2.0
CREATION_DATE  = 
ORIGINATOR     = 

OBJECT_NAME    = SL-16 R/B
OBJECT_ID      = 1994-077B
CENTER_NAME    = EARTH
REF_FRAME      = TEME
TIME_SYSTEM    = UTC
MEAN_ELEMENT_THEORY = SGP/SGP4

EPOCH          = 2025-12-13T23:31:40.409184
MEAN_MOTION    = 14.15550595
ECCENTRICITY   = .00046865
INCLINATION    = 70.9812
RA_OF_ASC_NODE = 172.8036
ARG_OF_PERICENTER = 283.2063
MEAN_ANOMALY   = 76.8537

EPHEMERIS_TYPE = 0
CLASSIFICATION_TYPE = U
NORAD_CAT_ID   = 23405
ELEMENT_SET_NO = 999
REV_AT_EPOCH   = 60410
BSTAR          = .17756714E-3
MEAN_MOTION_DOT = .299E-5
MEAN_MOTION_DDOT = 0

CCSDS_OMM_VERS = 2.0
CREATION_DATE  = 
ORIGINATOR     = 

OBJECT_NAME    = ARIANE 40+ R/B
OBJECT_ID      = 1995-021B
CENTER_NAME    = EARTH
REF_FRAME      = TEME
TIME_SYSTEM    = UTC
MEAN_ELEMENT_THEORY = SGP/SGP4

EPOCH          = 2025-12-13T18:55:30.209376
MEAN_MOTION    = 14.39696480
ECCENTRICITY   = .00074486
INCLINATION    = 98.4651
RA_OF_ASC_NODE = 55.3647
ARG_OF_PERICENTER = 47.2472
MEAN_ANOMALY   = 62.9529

EPHEMERIS_TYPE = 0
CLASSIFICATION_TYPE = U
NORAD_CAT_ID   = 23561
ELEMENT_SET_NO = 999
REV_AT_EPOCH   = 60688
BSTAR          = .1590901E-3
MEAN_MOTION_DOT = .454E-5
MEAN_MOTION_DDOT = 0

CCSDS_OMM_VERS = 2.0
CREATION_DATE  = 
ORIGINATOR     = 

OBJECT_NAME    = SL-16 R/B
OBJECT_ID      = 1995-058B
CENTER_NAME    = EARTH
REF_FRAME      = TEME
TIME_SYSTEM    = UTC
MEAN_ELEMENT_THEORY = SGP/SGP4

EPOCH          = 2025-12-13T18:30:20.125728
MEAN_MOTION    = 14.15484108
ECCENTRICITY   = .00149808
INCLINATION    = 71.0226
RA_OF_ASC_NODE = 0.6391
ARG_OF_PERICENTER = 254.1936
MEAN_ANOMALY   = 105.7536

EPHEMERIS_TYPE = 0
CLASSIFICATION_TYPE = U
NORAD_CAT_ID   = 23705
ELEMENT_SET_NO = 999
REV_AT_EPOCH   = 55569
BSTAR          = .20480578E-4
MEAN_MOTION_DOT = -.8E-7
MEAN_MOTION_DDOT = 0

CCSDS_OMM_VERS = 2.0
CREATION_DATE  = 
ORIGINATOR     = 

OBJECT_NAME    = SL-16 R/B
OBJECT_ID      = 1996-051B
CENTER_NAME    = EARTH
REF_FRAME      = TEME
TIME_SYSTEM    = UTC
MEAN_ELEMENT_THEORY = SGP/SGP4

EPOCH          = 2025-12-13T18:19:19.317792
MEAN_MOTION    = 14.12396899
ECCENTRICITY   = .00194169
INCLINATION    = 70.7596
RA_OF_ASC_NODE = 357.1172
ARG_OF_PERICENTER = 260.0938
MEAN_ANOMALY   = 99.7990

EPHEMERIS_TYPE = 0
CLASSIFICATION_TYPE = U
NORAD_CAT_ID   = 24298
ELEMENT_SET_NO = 999
REV_AT_EPOCH   = 50951
BSTAR          = .46619399E-4
MEAN_MOTION_DOT = .37E-6
MEAN_MOTION_DDOT = 0

CCSDS_OMM_VERS = 2.0
CREATION_DATE  = 
ORIGINATOR     = 

OBJECT_NAME    = ORBVIEW 2 (SEASTAR)
OBJECT_ID      = 1997-037A
CENTER_NAME    = EARTH
REF_FRAME      = TEME
TIME_SYSTEM    = UTC
MEAN_ELEMENT_THEORY = SGP/SGP4

EPOCH          = 2025-12-13T23:03:41.003136
MEAN_MOTION    = 14.35418312
ECCENTRICITY   = .00016056
INCLINATION    = 98.8457
RA_OF_ASC_NODE = 145.0661
ARG_OF_PERICENTER = 337.2410
MEAN_ANOMALY   = 22.8703

EPHEMERIS_TYPE = 0
CLASSIFICATION_TYPE = U
NORAD_CAT_ID   = 24883
ELEMENT_SET_NO = 999
REV_AT_EPOCH   = 49617
BSTAR          = .16929842E-3
MEAN_MOTION_DOT = .44E-5
MEAN_MOTION_DDOT = 0

CCSDS_OMM_VERS = 2.0
CREATION_DATE  = 
ORIGINATOR     = 

OBJECT_NAME    = SL-16 R/B
OBJECT_ID      = 1998-043G
CENTER_NAME    = EARTH
REF_FRAME      = TEME
TIME_SYSTEM    = UTC
MEAN_ELEMENT_THEORY = SGP/SGP4

EPOCH          = 2025-12-13T20:25:13.679328
MEAN_MOTION    = 14.26025961
ECCENTRICITY   = .00087796
INCLINATION    = 98.8125
RA_OF_ASC_NODE = 295.6751
ARG_OF_PERICENTER = 263.1791
MEAN_ANOMALY   = 96.8389

EPHEMERIS_TYPE = 0
CLASSIFICATION_TYPE = U
NORAD_CAT_ID   = 25400
ELEMENT_SET_NO = 999
REV_AT_EPOCH   = 42675
BSTAR          = .70783027E-4
MEAN_MOTION_DOT = .124E-5
MEAN_MOTION_DDOT = 0

CCSDS_OMM_VERS = 2.0
CREATION_DATE  = 
ORIGINATOR     = 

OBJECT_NAME    = SL-16 R/B
OBJECT_ID      = 1998-045B
CENTER_NAME    = EARTH
REF_FRAME      = TEME
TIME_SYSTEM    = UTC
MEAN_ELEMENT_THEORY = SGP/SGP4

EPOCH          = 2025-12-13T11:18:18.458208
MEAN_MOTION    = 14.16174963
ECCENTRICITY   = .00068925
INCLINATION    = 71.0117
RA_OF_ASC_NODE = 2.8891
ARG_OF_PERICENTER = 176.3806
MEAN_ANOMALY   = 183.7369

EPHEMERIS_TYPE = 0
CLASSIFICATION_TYPE = U
NORAD_CAT_ID   = 25407
ELEMENT_SET_NO = 999
REV_AT_EPOCH   = 41489
BSTAR          = -.55909078E-4
MEAN_MOTION_DOT = -.158E-5
MEAN_MOTION_DDOT = 0

CCSDS_OMM_VERS = 2.0
CREATION_DATE  = 
ORIGINATOR     = 

OBJECT_NAME    = ISS (ZARYA)
OBJECT_ID      = 1998-067A
CENTER_NAME    = EARTH
REF_FRAME      = TEME
TIME_SYSTEM    = UTC
MEAN_ELEMENT_THEORY = SGP/SGP4

EPOCH          = 2025-12-13T21:29:24.134208
MEAN_MOTION    = 15.49578000
ECCENTRICITY   = .00032568
INCLINATION    = 51.6304
RA_OF_ASC_NODE = 136.7564
ARG_OF_PERICENTER = 246.2023
MEAN_ANOMALY   = 113.8624

EPHEMERIS_TYPE = 0
CLASSIFICATION_TYPE = U
NORAD_CAT_ID   = 25544
ELEMENT_SET_NO = 999
REV_AT_EPOCH   = 54303
BSTAR          = .22109287E-3
MEAN_MOTION_DOT = .11998E-3
MEAN_MOTION_DDOT = 0

CCSDS_OMM_VERS = 2.0
CREATION_DATE  = 
ORIGINATOR     = 

OBJECT_NAME    = CZ-4B R/B
OBJECT_ID      = 1999-025C
CENTER_NAME    = EARTH
REF_FRAME      = TEME
TIME_SYSTEM    = UTC
MEAN_ELEMENT_THEORY = SGP/SGP4

EPOCH          = 2025-12-14T00:27:31.326048
MEAN_MOTION    = 14.18243949
ECCENTRICITY   = .00363261
INCLINATION    = 98.6767
RA_OF_ASC_NODE = 29.2705
ARG_OF_PERICENTER = 230.2499
MEAN_ANOMALY   = 191.0521

EPHEMERIS_TYPE = 0
CLASSIFICATION_TYPE = U
NORAD_CAT_ID   = 25732
ELEMENT_SET_NO = 999
REV_AT_EPOCH   = 37602
BSTAR          = .78696862E-4
MEAN_MOTION_DOT = .12E-5
MEAN_MOTION_DDOT = 0

CCSDS_OMM_VERS = 2.0
CREATION_DATE  = 
ORIGINATOR     = 

OBJECT_NAME    = OKEAN-O
OBJECT_ID      = 1999-039A
CENTER_NAME    = EARTH
REF_FRAME      = TEME
TIME_SYSTEM    = UTC
MEAN_ELEMENT_THEORY = SGP/SGP4

EPOCH          = 2025-12-13T20:54:31.086432
MEAN_MOTION    = 14.80163705
ECCENTRICITY   = .00008168
INCLINATION    = 97.9604
RA_OF_ASC_NODE = 43.5631
ARG_OF_PERICENTER = 100.2932
MEAN_ANOMALY   = 259.8372

EPHEMERIS_TYPE = 0
CLASSIFICATION_TYPE = U
NORAD_CAT_ID   = 25860
ELEMENT_SET_NO = 999
REV_AT_EPOCH   = 42169
BSTAR          = .14856275E-3
MEAN_MOTION_DOT = .1076E-4
MEAN_MOTION_DDOT = 0

CCSDS_OMM_VERS = 2.0
CREATION_DATE  = 
ORIGINATOR     = 

OBJECT_NAME    = SL-16 R/B
OBJECT_ID      = 1999-039B
CENTER_NAME    = EARTH
REF_FRAME      = TEME
TIME_SYSTEM    = UTC
MEAN_ELEMENT_THEORY = SGP/SGP4

EPOCH          = 2025-12-13T20:45:52.345152
MEAN_MOTION    = 14.81588593
ECCENTRICITY   = .00150089
INCLINATION    = 98.0127
RA_OF_ASC_NODE = 42.0165
ARG_OF_PERICENTER = 170.9860
MEAN_ANOMALY   = 189.1625

EPHEMERIS_TYPE = 0
CLASSIFICATION_TYPE = U
NORAD_CAT_ID   = 25861
ELEMENT_SET_NO = 999
REV_AT_EPOCH   = 42415
BSTAR          = .12169104E-3
MEAN_MOTION_DOT = .903E-5
MEAN_MOTION_DDOT = 0

CCSDS_OMM_VERS = 2.0
CREATION_DATE  = 
ORIGINATOR     = 

OBJECT_NAME    = DELTA 2 R/B
OBJECT_ID      = 1999-041E
CENTER_NAME    = EARTH
REF_FRAME      = TEME
TIME_SYSTEM    = UTC
MEAN_ELEMENT_THEORY = SGP/SGP4

EPOCH          = 2025-12-13T23:43:04.046592
MEAN_MOTION    = 14.11405419
ECCENTRICITY   = .05046768
INCLINATION    = 51.7611
RA_OF_ASC_NODE = 283.4618
ARG_OF_PERICENTER = 95.4468
MEAN_ANOMALY   = 270.4225

EPHEMERIS_TYPE = 0
CLASSIFICATION_TYPE = U
NORAD_CAT_ID   = 25876
ELEMENT_SET_NO = 999
REV_AT_EPOCH   = 35092
BSTAR          = .29824041E-3
MEAN_MOTION_DOT = .1608E-4
MEAN_MOTION_DDOT = 0

CCSDS_OMM_VERS = 2.0
CREATION_DATE  = 
ORIGINATOR     = 

OBJECT_NAME    = HELIOS 1B
OBJECT_ID      = 1999-064A
CENTER_NAME    = EARTH
REF_FRAME      = TEME
TIME_SYSTEM    = UTC
MEAN_ELEMENT_THEORY = SGP/SGP4

EPOCH          = 2025-12-13T16:16:27.017472
MEAN_MOTION    = 14.87289455
ECCENTRICITY   = .0001642
INCLINATION    = 98.1754
RA_OF_ASC_NODE = 242.3716
ARG_OF_PERICENTER = 42.6990
MEAN_ANOMALY   = 317.4353

EPHEMERIS_TYPE = 0
CLASSIFICATION_TYPE = U
NORAD_CAT_ID   = 25977
ELEMENT_SET_NO = 999
REV_AT_EPOCH   = 67247
BSTAR          = .29396678E-3
MEAN_MOTION_DOT = .2593E-4
MEAN_MOTION_DDOT = 0

CCSDS_OMM_VERS = 2.0
CREATION_DATE  = 
ORIGINATOR     = 

OBJECT_NAME    = TERRA
OBJECT_ID      = 1999-068A
CENTER_NAME    = EARTH
REF_FRAME      = TEME
TIME_SYSTEM    = UTC
MEAN_ELEMENT_THEORY = SGP/SGP4

EPOCH          = 2025-12-13T23:10:15.237696
MEAN_MOTION    = 14.60903581
ECCENTRICITY   = .00036028
INCLINATION    = 97.9749
RA_OF_ASC_NODE = 39.6050
ARG_OF_PERICENTER = 92.0675
MEAN_ANOMALY   = 321.0246

EPHEMERIS_TYPE = 0
CLASSIFICATION_TYPE = U
NORAD_CAT_ID   = 25994
ELEMENT_SET_NO = 999
REV_AT_EPOCH   = 38256
BSTAR          = .14965652E-3
MEAN_MOTION_DOT = .688E-5
MEAN_MOTION_DDOT = 0

